STARLINK-1791
1 16692C 20073Y   21326.14879073  .00003463  00000-0  23203-3 0  3265
2 16692  53.0527  98.0716 0001389  79.3259 210.2889 15.06394074    18
